QIANFAN-105             
1 66047U 25233Q   25357.60763774 -.01783312  00000+0 -16423+1 0  9992
2 66047  88.9947  60.9458 0014173   8.2623 351.8780 13.86893385  9509
QIANFAN-106             
1 66048U 25233R   25357.17884709 -.01894683  00000+0 -25091+1 0  9992
2 66048  88.9937  61.0449 0017456  19.4280 340.7541 13.65264438  9411
QIANFAN-107             
1 66049U 25233S   25356.23384999 -.02132870  00000+0 -27019+1 0  9991
2 66049  88.9912  61.1401 0020795  21.5749 338.6283 13.67776196  9283
QIANFAN-108             
1 66050U 25233T   25356.44738787 -.02049891  00000+0 -25797+1 0  9995
2 66050  88.9918  61.1209 0021943  18.4540 341.7412 13.68003096  9313
